ORBCOMM FM103           
1 40091U 14040F   25276.23579546  .00001991  00000+0  46226-3 0  9998
2 40091  47.0036 227.4725 0001378  24.2788 335.8162 14.58352456579872
ORBCOMM FM114           
1 41179U 15081A   25276.04881121  .00001590  00000+0  37629-3 0  9998
2 41179  47.0018 137.3460 0001630 128.8860 231.2171 14.58386289520212
ORBCOMM FM119           
1 41180U 15081B   25275.56217672  .00002350  00000+0  53932-3 0  9990
2 41180  47.0001  48.9852 0001516 208.6336 151.4466 14.58326111521394
ORBCOMM FM105           
1 41181U 15081C   25275.44569051  .00000862  00000+0  28790-3 0  9999
2 41181  47.0018  64.9294 0001183  86.2450 273.8566 14.45311728516262
ORBCOMM FM110           
1 41182U 15081D   25276.04077324  .00001946  00000+0  45194-3 0  9995
2 41182  47.0001 136.9167 0002553 328.5692  31.5041 14.58414780520084
ORBCOMM FM118           
1 41183U 15081E   25276.21035449  .00001858  00000+0  43341-3 0  9991
2 41183  47.0020 136.3784 0003197 288.9281  71.1258 14.58387123520218
ORBCOMM FM112           
1 41184U 15081F   25275.53084595  .00002604  00000+0  59190-3 0  9991
2 41184  46.9988  48.1864 0001227 149.3543 210.7414 14.58456735521337
ORBCOMM FM113           
1 41185U 15081G   25275.50791051  .00002696  00000+0  61158-3 0  9999
2 41185  47.0005  48.6381 0001186 173.5684 186.5217 14.58444152521317
