<?xml version="1.0" encoding="UTF-8"?>
<ndm xmlns:xsi="http://www.w3.org/2001/XMLSchema-instance" xsi:noNamespaceSchemaLocation="https://sanaregistry.org/r/ndmxml_unqualified/ndmxml-2.0.0-master-2.0.xsd">
<omm id="CCSDS_OMM_VERS" version="2.0">
<header><CREATION_DATE/><ORIGINATOR/></header><body><segment><metadata><OBJECT_NAME>ORBCOMM FM103</OBJECT_NAME><OBJECT_ID>2014-040F</OBJECT_ID><CENTER_NAME>EARTH</CENTER_NAME><REF_FRAME>TEME</REF_FRAME><TIME_SYSTEM>UTC</TIME_SYSTEM><MEAN_ELEMENT_THEORY>SGP4</MEAN_ELEMENT_THEORY></metadata><data><meanElements><EPOCH>2025-10-03T05:39:32.727744</EPOCH><MEAN_MOTION>14.58352456</MEAN_MOTION><ECCENTRICITY>.00013786</ECCENTRICITY><INCLINATION>47.0036</INCLINATION><RA_OF_ASC_NODE>227.4725</RA_OF_ASC_NODE><ARG_OF_PERICENTER>24.2788</ARG_OF_PERICENTER><MEAN_ANOMALY>335.8162</MEAN_ANOMALY></meanElements><tleParameters><EPHEMERIS_TYPE>0</EPHEMERIS_TYPE><CLASSIFICATION_TYPE>U</CLASSIFICATION_TYPE><NORAD_CAT_ID>40091</NORAD_CAT_ID><ELEMENT_SET_NO>999</ELEMENT_SET_NO><REV_AT_EPOCH>57987</REV_AT_EPOCH><BSTAR>.46226135E-3</BSTAR><MEAN_MOTION_DOT>.1991E-4</MEAN_MOTION_DOT><MEAN_MOTION_DDOT>0</MEAN_MOTION_DDOT></tleParameters></data></segment></body></omm>
<omm id="CCSDS_OMM_VERS" version="2.0">
<header><CREATION_DATE/><ORIGINATOR/></header><body><segment><metadata><OBJECT_NAME>ORBCOMM FM114</OBJECT_NAME><OBJECT_ID>2015-081A</OBJECT_ID><CENTER_NAME>EARTH</CENTER_NAME><REF_FRAME>TEME</REF_FRAME><TIME_SYSTEM>UTC</TIME_SYSTEM><MEAN_ELEMENT_THEORY>SGP4</MEAN_ELEMENT_THEORY></metadata><data><meanElements><EPOCH>2025-10-03T01:10:17.288544</EPOCH><MEAN_MOTION>14.58386289</MEAN_MOTION><ECCENTRICITY>.00016306</ECCENTRICITY><INCLINATION>47.0018</INCLINATION><RA_OF_ASC_NODE>137.3460</RA_OF_ASC_NODE><ARG_OF_PERICENTER>128.8860</ARG_OF_PERICENTER><MEAN_ANOMALY>231.2171</MEAN_ANOMALY></meanElements><tleParameters><EPHEMERIS_TYPE>0</EPHEMERIS_TYPE><CLASSIFICATION_TYPE>U</CLASSIFICATION_TYPE><NORAD_CAT_ID>41179</NORAD_CAT_ID><ELEMENT_SET_NO>999</ELEMENT_SET_NO><REV_AT_EPOCH>52021</REV_AT_EPOCH><BSTAR>.37629351E-3</BSTAR><MEAN_MOTION_DOT>.159E-4</MEAN_MOTION_DOT><MEAN_MOTION_DDOT>0</MEAN_MOTION_DDOT></tleParameters></data></segment></body></omm>
<omm id="CCSDS_OMM_VERS" version="2.0">
<header><CREATION_DATE/><ORIGINATOR/></header><body><segment><metadata><OBJECT_NAME>ORBCOMM FM119</OBJECT_NAME><OBJECT_ID>2015-081B</OBJECT_ID><CENTER_NAME>EARTH</CENTER_NAME><REF_FRAME>TEME</REF_FRAME><TIME_SYSTEM>UTC</TIME_SYSTEM><MEAN_ELEMENT_THEORY>SGP4</MEAN_ELEMENT_THEORY></metadata><data><meanElements><EPOCH>2025-10-02T13:29:32.068608</EPOCH><MEAN_MOTION>14.58326111</MEAN_MOTION><ECCENTRICITY>.0001516</ECCENTRICITY><INCLINATION>47.0001</INCLINATION><RA_OF_ASC_NODE>48.9852</RA_OF_ASC_NODE><ARG_OF_PERICENTER>208.6336</ARG_OF_PERICENTER><MEAN_ANOMALY>151.4466</MEAN_ANOMALY></meanElements><tleParameters><EPHEMERIS_TYPE>0</EPHEMERIS_TYPE><CLASSIFICATION_TYPE>U</CLASSIFICATION_TYPE><NORAD_CAT_ID>41180</NORAD_CAT_ID><ELEMENT_SET_NO>999</ELEMENT_SET_NO><REV_AT_EPOCH>52139</REV_AT_EPOCH><BSTAR>.53932E-3</BSTAR><MEAN_MOTION_DOT>.235E-4</MEAN_MOTION_DOT><MEAN_MOTION_DDOT>0</MEAN_MOTION_DDOT></tleParameters></data></segment></body></omm>
<omm id="CCSDS_OMM_VERS" version="2.0">
<header><CREATION_DATE/><ORIGINATOR/></header><body><segment><metadata><OBJECT_NAME>ORBCOMM FM105</OBJECT_NAME><OBJECT_ID>2015-081C</OBJECT_ID><CENTER_NAME>EARTH</CENTER_NAME><REF_FRAME>TEME</REF_FRAME><TIME_SYSTEM>UTC</TIME_SYSTEM><MEAN_ELEMENT_THEORY>SGP4</MEAN_ELEMENT_THEORY></metadata><data><meanElements><EPOCH>2025-10-02T10:41:47.660064</EPOCH><MEAN_MOTION>14.45311728</MEAN_MOTION><ECCENTRICITY>.0001183</ECCENTRICITY><INCLINATION>47.0018</INCLINATION><RA_OF_ASC_NODE>64.9294</RA_OF_ASC_NODE><ARG_OF_PERICENTER>86.2450</ARG_OF_PERICENTER><MEAN_ANOMALY>273.8566</MEAN_ANOMALY></meanElements><tleParameters><EPHEMERIS_TYPE>0</EPHEMERIS_TYPE><CLASSIFICATION_TYPE>U</CLASSIFICATION_TYPE><NORAD_CAT_ID>41181</NORAD_CAT_ID><ELEMENT_SET_NO>999</ELEMENT_SET_NO><REV_AT_EPOCH>51626</REV_AT_EPOCH><BSTAR>.2879E-3</BSTAR><MEAN_MOTION_DOT>.862E-5</MEAN_MOTION_DOT><MEAN_MOTION_DDOT>0</MEAN_MOTION_DDOT></tleParameters></data></segment></body></omm>
<omm id="CCSDS_OMM_VERS" version="2.0">
<header><CREATION_DATE/><ORIGINATOR/></header><body><segment><metadata><OBJECT_NAME>ORBCOMM FM110</OBJECT_NAME><OBJECT_ID>2015-081D</OBJECT_ID><CENTER_NAME>EARTH</CENTER_NAME><REF_FRAME>TEME</REF_FRAME><TIME_SYSTEM>UTC</TIME_SYSTEM><MEAN_ELEMENT_THEORY>SGP4</MEAN_ELEMENT_THEORY></metadata><data><meanElements><EPOCH>2025-10-03T00:58:42.807936</EPOCH><MEAN_MOTION>14.58414780</MEAN_MOTION><ECCENTRICITY>.00025533</ECCENTRICITY><INCLINATION>47.0001</INCLINATION><RA_OF_ASC_NODE>136.9167</RA_OF_ASC_NODE><ARG_OF_PERICENTER>328.5692</ARG_OF_PERICENTER><MEAN_ANOMALY>31.5041</MEAN_ANOMALY></meanElements><tleParameters><EPHEMERIS_TYPE>0</EPHEMERIS_TYPE><CLASSIFICATION_TYPE>U</CLASSIFICATION_TYPE><NORAD_CAT_ID>41182</NORAD_CAT_ID><ELEMENT_SET_NO>999</ELEMENT_SET_NO><REV_AT_EPOCH>52008</REV_AT_EPOCH><BSTAR>.45194047E-3</BSTAR><MEAN_MOTION_DOT>.1946E-4</MEAN_MOTION_DOT><MEAN_MOTION_DDOT>0</MEAN_MOTION_DDOT></tleParameters></data></segment></body></omm>
<omm id="CCSDS_OMM_VERS" version="2.0">
<header><CREATION_DATE/><ORIGINATOR/></header><body><segment><metadata><OBJECT_NAME>ORBCOMM FM118</OBJECT_NAME><OBJECT_ID>2015-081E</OBJECT_ID><CENTER_NAME>EARTH</CENTER_NAME><REF_FRAME>TEME</REF_FRAME><TIME_SYSTEM>UTC</TIME_SYSTEM><MEAN_ELEMENT_THEORY>SGP4</MEAN_ELEMENT_THEORY></metadata><data><meanElements><EPOCH>2025-10-03T05:02:54.627936</EPOCH><MEAN_MOTION>14.58387123</MEAN_MOTION><ECCENTRICITY>.00031972</ECCENTRICITY><INCLINATION>47.0020</INCLINATION><RA_OF_ASC_NODE>136.3784</RA_OF_ASC_NODE><ARG_OF_PERICENTER>288.9281</ARG_OF_PERICENTER><MEAN_ANOMALY>71.1258</MEAN_ANOMALY></meanElements><tleParameters><EPHEMERIS_TYPE>0</EPHEMERIS_TYPE><CLASSIFICATION_TYPE>U</CLASSIFICATION_TYPE><NORAD_CAT_ID>41183</NORAD_CAT_ID><ELEMENT_SET_NO>999</ELEMENT_SET_NO><REV_AT_EPOCH>52021</REV_AT_EPOCH><BSTAR>.43341363E-3</BSTAR><MEAN_MOTION_DOT>.1858E-4</MEAN_MOTION_DOT><MEAN_MOTION_DDOT>0</MEAN_MOTION_DDOT></tleParameters></data></segment></body></omm>
<omm id="CCSDS_OMM_VERS" version="2.0">
<header><CREATION_DATE/><ORIGINATOR/></header><body><segment><metadata><OBJECT_NAME>ORBCOMM FM112</OBJECT_NAME><OBJECT_ID>2015-081F</OBJECT_ID><CENTER_NAME>EARTH</CENTER_NAME><REF_FRAME>TEME</REF_FRAME><TIME_SYSTEM>UTC</TIME_SYSTEM><MEAN_ELEMENT_THEORY>SGP4</MEAN_ELEMENT_THEORY></metadata><data><meanElements><EPOCH>2025-10-02T12:44:25.090080</EPOCH><MEAN_MOTION>14.58456735</MEAN_MOTION><ECCENTRICITY>.0001227</ECCENTRICITY><INCLINATION>46.9988</INCLINATION><RA_OF_ASC_NODE>48.1864</RA_OF_ASC_NODE><ARG_OF_PERICENTER>149.3543</ARG_OF_PERICENTER><MEAN_ANOMALY>210.7414</MEAN_ANOMALY></meanElements><tleParameters><EPHEMERIS_TYPE>0</EPHEMERIS_TYPE><CLASSIFICATION_TYPE>U</CLASSIFICATION_TYPE><NORAD_CAT_ID>41184</NORAD_CAT_ID><ELEMENT_SET_NO>999</ELEMENT_SET_NO><REV_AT_EPOCH>52133</REV_AT_EPOCH><BSTAR>.5919E-3</BSTAR><MEAN_MOTION_DOT>.2604E-4</MEAN_MOTION_DOT><MEAN_MOTION_DDOT>0</MEAN_MOTION_DDOT></tleParameters></data></segment></body></omm>
<omm id="CCSDS_OMM_VERS" version="2.0">
<header><CREATION_DATE/><ORIGINATOR/></header><body><segment><metadata><OBJECT_NAME>ORBCOMM FM113</OBJECT_NAME><OBJECT_ID>2015-081G</OBJECT_ID><CENTER_NAME>EARTH</CENTER_NAME><REF_FRAME>TEME</REF_FRAME><TIME_SYSTEM>UTC</TIME_SYSTEM><MEAN_ELEMENT_THEORY>SGP4</MEAN_ELEMENT_THEORY></metadata><data><meanElements><EPOCH>2025-10-02T12:11:23.468064</EPOCH><MEAN_MOTION>14.58444152</MEAN_MOTION><ECCENTRICITY>.0001186</ECCENTRICITY><INCLINATION>47.0005</INCLINATION><RA_OF_ASC_NODE>48.6381</RA_OF_ASC_NODE><ARG_OF_PERICENTER>173.5684</ARG_OF_PERICENTER><MEAN_ANOMALY>186.5217</MEAN_ANOMALY></meanElements><tleParameters><EPHEMERIS_TYPE>0</EPHEMERIS_TYPE><CLASSIFICATION_TYPE>U</CLASSIFICATION_TYPE><NORAD_CAT_ID>41185</NORAD_CAT_ID><ELEMENT_SET_NO>999</ELEMENT_SET_NO><REV_AT_EPOCH>52131</REV_AT_EPOCH><BSTAR>.61158E-3</BSTAR><MEAN_MOTION_DOT>.2696E-4</MEAN_MOTION_DOT><MEAN_MOTION_DDOT>0</MEAN_MOTION_DDOT></tleParameters></data></segment></body></omm>

</ndm>
